STARLINK-5408           
1 54810U 22175BE  26062.33674299 -.00002604  00000+0 -14559-3 0  9994
2 54810  53.2162  52.4071 0001261  81.1436 278.9699 15.08833316179242
STARLINK-5424           
1 54811U 22175BF  26062.36351154  .00012353  00000+0  79227-3 0  9993
2 54811  53.2189  52.5664 0001405  88.7064 271.4089 15.08868125179248
STARLINK-5382           
1 54820U 22177A   26062.65014012 -.00000045  00000+0  11767-4 0  9998
2 54820  43.0018 166.4227 0001253 268.1237  91.9462 15.02533906176048
STARLINK-5385           
1 54821U 22177B   26062.70441379 -.00001454  00000+0 -92557-4 0  9997
2 54821  43.0026 165.9743 0001849 278.2645  81.7988 15.02545931176053
STARLINK-5101           
1 54822U 22177C   26062.63349282 -.00000047  00000+0  11583-4 0  9996
2 54822  43.0017 166.2980 0001153 269.7784  90.2926 15.02532949176049
STARLINK-5106           
1 54823U 22177D   26062.64682874 -.00002003  00000+0 -13327-3 0  9997
2 54823  43.0012 166.3939 0001585 261.8716  98.1946 15.02530920176043
STARLINK-4643           
1 54824U 22177E   26062.64348053 -.00000069  00000+0  99383-5 0  9993
2 54824  42.9985 166.3695 0001190 261.6965  98.3743 15.02533139176048
STARLINK-5107           
1 54826U 22177G   26062.70107949  .00000269  00000+0  35021-4 0  9998
2 54826  43.0038 165.9453 0001509 262.4825  97.5846 15.02535099176059
STARLINK-5383           
1 54827U 22177H   26062.62682861  .00000301  00000+0  37342-4 0  9996
2 54827  43.0019 166.2433 0001262 266.0214  94.0484 15.02537622176053
STARLINK-5381           
1 54828U 22177J   26062.62350373 -.00000218  00000+0 -10324-5 0  9998
2 54828  43.0026 166.2226 0001457 264.5285  95.5391 15.02534018176047
STARLINK-5394           
1 54830U 22177L   26062.61796046  .00001341  00000+0  11433-3 0  9997
2 54830  42.9997 166.1794 0000904 297.6211  62.4539 15.02539627176044
STARLINK-5395           
1 54831U 22177M   26062.63682200  .00000595  00000+0  59113-4 0  9994
2 54831  43.0035 166.3202 0001241 274.5531  85.5170 15.02535308176049
STARLINK-5386           
1 54834U 22177Q   26062.61684531 -.00000563  00000+0 -26611-4 0  9998
2 54834  43.0014 166.1655 0001495 265.0873  94.9799 15.02534407176055
STARLINK-5389           
1 54835U 22177R   26062.62127822  .00000439  00000+0  47595-4 0  9999
2 54835  43.0034 166.2062 0001325 270.2857  89.7833 15.02538047176047
STARLINK-5384           
1 54836U 22177S   26062.75002314  .00169645  00000+0  65455-2 0  9990
2 54836  43.0010 163.6195 0001869 296.5051 120.4679 15.24884387  5801
STARLINK-5369           
1 54837U 22177T   26062.34870875  .00000233  00000+0  32321-4 0  9996
2 54837  43.0026 167.5991 0001024 251.0437 109.0294 15.02537268176009
STARLINK-5372           
1 54838U 22177U   26062.75002314  .01417659  00000+0  79582-1 0  9999
2 54838  43.0005 165.1955 0001506 297.4935 171.7076 15.09478242  5809
