[{"OBJECT_NAME":"STARLINK-5408","OBJECT_ID":"2022-175BE","EPOCH":"2026-03-03T08:04:54.594336","MEAN_MOTION":15.08833316,"ECCENTRICITY":0.00012611,"INCLINATION":53.2162,"RA_OF_ASC_NODE":52.4071,"ARG_OF_PERICENTER":81.1436,"MEAN_ANOMALY":278.9699,"EPHEMERIS_TYPE":0,"CLASSIFICATION_TYPE":"U","NORAD_CAT_ID":54810,"ELEMENT_SET_NO":999,"REV_AT_EPOCH":17924,"BSTAR":-0.00014559049,"MEAN_MOTION_DOT":-2.604e-5,"MEAN_MOTION_DDOT":0},{"OBJECT_NAME":"STARLINK-5424","OBJECT_ID":"2022-175BF","EPOCH":"2026-03-03T08:43:27.397056","MEAN_MOTION":15.08868125,"ECCENTRICITY":0.00014051,"INCLINATION":53.2189,"RA_OF_ASC_NODE":52.5664,"ARG_OF_PERICENTER":88.7064,"MEAN_ANOMALY":271.4089,"EPHEMERIS_TYPE":0,"CLASSIFICATION_TYPE":"U","NORAD_CAT_ID":54811,"ELEMENT_SET_NO":999,"REV_AT_EPOCH":17924,"BSTAR":0.00079226935,"MEAN_MOTION_DOT":0.00012353,"MEAN_MOTION_DDOT":0},{"OBJECT_NAME":"STARLINK-5382","OBJECT_ID":"2022-177A","EPOCH":"2026-03-03T15:36:12.106368","MEAN_MOTION":15.02533906,"ECCENTRICITY":0.0001253,"INCLINATION":43.0018,"RA_OF_ASC_NODE":166.4227,"ARG_OF_PERICENTER":268.1237,"MEAN_ANOMALY":91.9462,"EPHEMERIS_TYPE":0,"CLASSIFICATION_TYPE":"U","NORAD_CAT_ID":54820,"ELEMENT_SET_NO":999,"REV_AT_EPOCH":17604,"BSTAR":1.1767e-5,"MEAN_MOTION_DOT":-4.5e-7,"MEAN_MOTION_DDOT":0},{"OBJECT_NAME":"STARLINK-5385","OBJECT_ID":"2022-177B","EPOCH":"2026-03-03T16:54:21.351456","MEAN_MOTION":15.02545931,"ECCENTRICITY":0.0001849,"INCLINATION":43.0026,"RA_OF_ASC_NODE":165.9743,"ARG_OF_PERICENTER":278.2645,"MEAN_ANOMALY":81.7988,"EPHEMERIS_TYPE":0,"CLASSIFICATION_TYPE":"U","NORAD_CAT_ID":54821,"ELEMENT_SET_NO":999,"REV_AT_EPOCH":17605,"BSTAR":-9.2557e-5,"MEAN_MOTION_DOT":-1.454e-5,"MEAN_MOTION_DDOT":0},{"OBJECT_NAME":"STARLINK-5101","OBJECT_ID":"2022-177C","EPOCH":"2026-03-03T15:12:13.779648","MEAN_MOTION":15.02532949,"ECCENTRICITY":0.0001153,"INCLINATION":43.0017,"RA_OF_ASC_NODE":166.298,"ARG_OF_PERICENTER":269.7784,"MEAN_ANOMALY":90.2926,"EPHEMERIS_TYPE":0,"CLASSIFICATION_TYPE":"U","NORAD_CAT_ID":54822,"ELEMENT_SET_NO":999,"REV_AT_EPOCH":17604,"BSTAR":1.1583e-5,"MEAN_MOTION_DOT":-4.7e-7,"MEAN_MOTION_DDOT":0},{"OBJECT_NAME":"STARLINK-5106","OBJECT_ID":"2022-177D","EPOCH":"2026-03-03T15:31:26.003136","MEAN_MOTION":15.0253092,"ECCENTRICITY":0.0001585,"INCLINATION":43.0012,"RA_OF_ASC_NODE":166.3939,"ARG_OF_PERICENTER":261.8716,"MEAN_ANOMALY":98.1946,"EPHEMERIS_TYPE":0,"CLASSIFICATION_TYPE":"U","NORAD_CAT_ID":54823,"ELEMENT_SET_NO":999,"REV_AT_EPOCH":17604,"BSTAR":-0.00013327,"MEAN_MOTION_DOT":-2.003e-5,"MEAN_MOTION_DDOT":0},{"OBJECT_NAME":"STARLINK-4643","OBJECT_ID":"2022-177E","EPOCH":"2026-03-03T15:26:36.717792","MEAN_MOTION":15.02533139,"ECCENTRICITY":0.000119,"INCLINATION":42.9985,"RA_OF_ASC_NODE":166.3695,"ARG_OF_PERICENTER":261.6965,"MEAN_ANOMALY":98.3743,"EPHEMERIS_TYPE":0,"CLASSIFICATION_TYPE":"U","NORAD_CAT_ID":54824,"ELEMENT_SET_NO":999,"REV_AT_EPOCH":17604,"BSTAR":9.9383e-6,"MEAN_MOTION_DOT":-6.9e-7,"MEAN_MOTION_DDOT":0},{"OBJECT_NAME":"STARLINK-5107","OBJECT_ID":"2022-177G","EPOCH":"2026-03-03T16:49:33.267936","MEAN_MOTION":15.02535099,"ECCENTRICITY":0.0001509,"INCLINATION":43.0038,"RA_OF_ASC_NODE":165.9453,"ARG_OF_PERICENTER":262.4825,"MEAN_ANOMALY":97.5846,"EPHEMERIS_TYPE":0,"CLASSIFICATION_TYPE":"U","NORAD_CAT_ID":54826,"ELEMENT_SET_NO":999,"REV_AT_EPOCH":17605,"BSTAR":3.5021e-5,"MEAN_MOTION_DOT":2.69e-6,"MEAN_MOTION_DDOT":0},{"OBJECT_NAME":"STARLINK-5383","OBJECT_ID":"2022-177H","EPOCH":"2026-03-03T15:02:37.991904","MEAN_MOTION":15.02537622,"ECCENTRICITY":0.0001262,"INCLINATION":43.0019,"RA_OF_ASC_NODE":166.2433,"ARG_OF_PERICENTER":266.0214,"MEAN_ANOMALY":94.0484,"EPHEMERIS_TYPE":0,"CLASSIFICATION_TYPE":"U","NORAD_CAT_ID":54827,"ELEMENT_SET_NO":999,"REV_AT_EPOCH":17605,"BSTAR":3.7342e-5,"MEAN_MOTION_DOT":3.01e-6,"MEAN_MOTION_DDOT":0},{"OBJECT_NAME":"STARLINK-5381","OBJECT_ID":"2022-177J","EPOCH":"2026-03-03T14:57:50.722272","MEAN_MOTION":15.02534018,"ECCENTRICITY":0.0001457,"INCLINATION":43.0026,"RA_OF_ASC_NODE":166.2226,"ARG_OF_PERICENTER":264.5285,"MEAN_ANOMALY":95.5391,"EPHEMERIS_TYPE":0,"CLASSIFICATION_TYPE":"U","NORAD_CAT_ID":54828,"ELEMENT_SET_NO":999,"REV_AT_EPOCH":17604,"BSTAR":-1.0324e-6,"MEAN_MOTION_DOT":-2.18e-6,"MEAN_MOTION_DDOT":0},{"OBJECT_NAME":"STARLINK-5394","OBJECT_ID":"2022-177L","EPOCH":"2026-03-03T14:49:51.783744","MEAN_MOTION":15.02539627,"ECCENTRICITY":9.04e-5,"INCLINATION":42.9997,"RA_OF_ASC_NODE":166.1794,"ARG_OF_PERICENTER":297.6211,"MEAN_ANOMALY":62.4539,"EPHEMERIS_TYPE":0,"CLASSIFICATION_TYPE":"U","NORAD_CAT_ID":54830,"ELEMENT_SET_NO":999,"REV_AT_EPOCH":17604,"BSTAR":0.00011433,"MEAN_MOTION_DOT":1.341e-5,"MEAN_MOTION_DDOT":0},{"OBJECT_NAME":"STARLINK-5395","OBJECT_ID":"2022-177M","EPOCH":"2026-03-03T15:17:01.420800","MEAN_MOTION":15.02535308,"ECCENTRICITY":0.0001241,"INCLINATION":43.0035,"RA_OF_ASC_NODE":166.3202,"ARG_OF_PERICENTER":274.5531,"MEAN_ANOMALY":85.517,"EPHEMERIS_TYPE":0,"CLASSIFICATION_TYPE":"U","NORAD_CAT_ID":54831,"ELEMENT_SET_NO":999,"REV_AT_EPOCH":17604,"BSTAR":5.9113e-5,"MEAN_MOTION_DOT":5.95e-6,"MEAN_MOTION_DDOT":0},{"OBJECT_NAME":"STARLINK-5386","OBJECT_ID":"2022-177Q","EPOCH":"2026-03-03T14:48:15.434784","MEAN_MOTION":15.02534407,"ECCENTRICITY":0.0001495,"INCLINATION":43.0014,"RA_OF_ASC_NODE":166.1655,"ARG_OF_PERICENTER":265.0873,"MEAN_ANOMALY":94.9799,"EPHEMERIS_TYPE":0,"CLASSIFICATION_TYPE":"U","NORAD_CAT_ID":54834,"ELEMENT_SET_NO":999,"REV_AT_EPOCH":17605,"BSTAR":-2.6611e-5,"MEAN_MOTION_DOT":-5.63e-6,"MEAN_MOTION_DDOT":0},{"OBJECT_NAME":"STARLINK-5389","OBJECT_ID":"2022-177R","EPOCH":"2026-03-03T14:54:38.438208","MEAN_MOTION":15.02538047,"ECCENTRICITY":0.0001325,"INCLINATION":43.0034,"RA_OF_ASC_NODE":166.2062,"ARG_OF_PERICENTER":270.2857,"MEAN_ANOMALY":89.7833,"EPHEMERIS_TYPE":0,"CLASSIFICATION_TYPE":"U","NORAD_CAT_ID":54835,"ELEMENT_SET_NO":999,"REV_AT_EPOCH":17604,"BSTAR":4.7595e-5,"MEAN_MOTION_DOT":4.39e-6,"MEAN_MOTION_DDOT":0},{"OBJECT_NAME":"STARLINK-5384","OBJECT_ID":"2022-177S","EPOCH":"2026-03-03T18:00:01.999296","MEAN_MOTION":15.24884387,"ECCENTRICITY":0.0001869,"INCLINATION":43.001,"RA_OF_ASC_NODE":163.6195,"ARG_OF_PERICENTER":296.5051,"MEAN_ANOMALY":120.4679,"EPHEMERIS_TYPE":0,"CLASSIFICATION_TYPE":"U","NORAD_CAT_ID":54836,"ELEMENT_SET_NO":999,"REV_AT_EPOCH":580,"BSTAR":0.0065455,"MEAN_MOTION_DOT":0.00169645,"MEAN_MOTION_DDOT":0},{"OBJECT_NAME":"STARLINK-5369","OBJECT_ID":"2022-177T","EPOCH":"2026-03-03T08:22:08.436000","MEAN_MOTION":15.02537268,"ECCENTRICITY":0.0001024,"INCLINATION":43.0026,"RA_OF_ASC_NODE":167.5991,"ARG_OF_PERICENTER":251.0437,"MEAN_ANOMALY":109.0294,"EPHEMERIS_TYPE":0,"CLASSIFICATION_TYPE":"U","NORAD_CAT_ID":54837,"ELEMENT_SET_NO":999,"REV_AT_EPOCH":17600,"BSTAR":3.2320648e-5,"MEAN_MOTION_DOT":2.33e-6,"MEAN_MOTION_DDOT":0},{"OBJECT_NAME":"STARLINK-5372","OBJECT_ID":"2022-177U","EPOCH":"2026-03-03T18:00:01.999296","MEAN_MOTION":15.09478242,"ECCENTRICITY":0.0001506,"INCLINATION":43.0005,"RA_OF_ASC_NODE":165.1955,"ARG_OF_PERICENTER":297.4935,"MEAN_ANOMALY":171.7076,"EPHEMERIS_TYPE":0,"CLASSIFICATION_TYPE":"U","NORAD_CAT_ID":54838,"ELEMENT_SET_NO":999,"REV_AT_EPOCH":580,"BSTAR":0.079582,"MEAN_MOTION_DOT":0.01417659,"MEAN_MOTION_DDOT":0}]
